CCSDS_OEM_VERS = 1.0
CREATION_DATE  = 2017-05-11T11:45:05
ORIGINATOR     = GMAT USER

META_START
OBJECT_NAME          = MOPSSat_alt_35785_km_RAAN_180_151
OBJECT_ID            = SatId
CENTER_NAME          = Earth
REF_FRAME            = EME2000
TIME_SYSTEM          = UTC
START_TIME           = 2017-01-01T00:00:00.000
USEABLE_START_TIME   = 2017-01-01T00:00:00.000
USEABLE_STOP_TIME    = 2017-01-02T00:00:00.000
STOP_TIME            = 2017-01-02T00:00:00.000
INTERPOLATION        = Lagrange
INTERPOLATION_DEGREE = 7 
META_STOP


                                                                                   

2017-01-01T02:54:10.000   7.149461394512130e+03  -3.445851718557860e+04   6.010751428907563e+01   3.476769789533250e+00  -1.053499955783673e+00   1.823894013181865e-03
2017-01-01T02:54:20.000   7.184225820279747e+03  -3.446903643447223e+04   6.012572556974692e+01   3.476114875225372e+00  -1.050350403556395e+00   1.818363130887082e-03
2017-01-01T02:54:30.000   7.218983685804091e+03  -3.447952420632863e+04   6.014388157373601e+01   3.475457757821296e+00  -1.047204552388523e+00   1.812838683752487e-03
2017-01-01T02:54:40.000   7.253734968958264e+03  -3.448998053809541e+04   6.016198236528530e+01   3.474798445208526e+00  -1.044062397928889e+00   1.807320664210918e-03
2017-01-01T02:54:50.000   7.288479647734704e+03  -3.450040546669040e+04   6.018002800858541e+01   3.474136945248054e+00  -1.040923935822125e+00   1.801809064687820e-03
2017-01-01T02:55:00.000   7.323217700285353e+03  -3.451079902901180e+04   6.019801856779231e+01   3.473473265773530e+00  -1.037789161705270e+00   1.796303877595297e-03
2017-01-01T02:55:10.000   7.357949104816070e+03  -3.452116126190728e+04   6.021595410697445e+01   3.472807414593404e+00  -1.034658071217236e+00   1.790805095348733e-03
2017-01-01T02:55:20.000   7.392673840043361e+03  -3.453149220230761e+04   6.023383469034371e+01   3.472139399482031e+00  -1.031530659957965e+00   1.785312710295072e-03
2017-01-01T02:55:30.000   7.427391884640194e+03  -3.454179188706422e+04   6.025166038197406e+01   3.471469228190580e+00  -1.028406923538113e+00   1.779826714800053e-03
2017-01-01T02:55:40.000   7.462103217445169e+03  -3.455206035301090e+04   6.026943124590874e+01   3.470796908443050e+00  -1.025286857560298e+00   1.774347101215297e-03
2017-01-01T02:55:50.000   7.496807816650638e+03  -3.456229763672347e+04   6.028714734574411e+01   3.470122447952047e+00  -1.022170457692122e+00   1.768873862006509e-03
2017-01-01T02:56:00.000   7.531505660614146e+03  -3.457250377476036e+04   6.030480874504607e+01   3.469445854403181e+00  -1.019057719593213e+00   1.763406989625383e-03
2017-01-01T02:56:10.000   7.566196727648584e+03  -3.458267880360021e+04   6.032241550724205e+01   3.468767135459172e+00  -1.015948638934149e+00   1.757946476542825e-03
2017-01-01T02:56:20.000   7.600880996576641e+03  -3.459282275980788e+04   6.033996769590834e+01   3.468086298749328e+00  -1.012843211346453e+00   1.752492315161163e-03
2017-01-01T02:56:30.000   7.635558446272697e+03  -3.460293567989687e+04   6.035746537453202e+01   3.467403351878331e+00  -1.009741432464006e+00   1.747044497886853e-03
2017-01-01T02:56:40.000   7.670229055768138e+03  -3.461301760036114e+04   6.037490860656596e+01   3.466718302424319e+00  -1.006643297913546e+00   1.741603017113791e-03
2017-01-01T02:56:50.000   7.704892804209812e+03  -3.462306855766103e+04   6.039229745540435e+01   3.466031157939612e+00  -1.003548803318626e+00   1.736167865230231e-03
2017-01-01T02:57:00.000   7.739549670840765e+03  -3.463308858821933e+04   6.040963198437612e+01   3.465341925951293e+00  -1.000457944301180e+00   1.730739034621577e-03
2017-01-01T02:57:10.000   7.774199634958498e+03  -3.464307772840931e+04   6.042691225672414e+01   3.464650613962118e+00  -9.973707164852746e-01   1.725316517676952e-03
2017-01-01T02:57:20.000   7.808842675894932e+03  -3.465303601454734e+04   6.044413833559227e+01   3.463957229450850e+00  -9.942871154990867e-01   1.719900306792709e-03
2017-01-01T02:57:30.000   7.843478772975872e+03  -3.466296348288331e+04   6.046131028400907e+01   3.463261779873305e+00  -9.912071369783250e-01   1.714490394378410e-03
2017-01-01T02:57:40.000   7.878107905625763e+03  -3.467286016962992e+04   6.047842816493835e+01   3.462564272660250e+00  -9.881307765570241e-01   1.709086772840657e-03
2017-01-01T02:57:50.000   7.912730052911865e+03  -3.468272611083531e+04   6.049549204105892e+01   3.461864715226879e+00  -9.850580299077617e-01   1.703689434653719e-03
2017-01-01T02:58:00.000   7.947345194096234e+03  -3.469256134253809e+04   6.051250197503257e+01   3.461163114961549e+00  -9.819888926929364e-01   1.698298372273966e-03
2017-01-01T02:58:10.000   7.981953308430066e+03  -3.470236590070933e+04   6.052945802940413e+01   3.460459479230055e+00  -9.789233605829846e-01   1.692913578171865e-03
2017-01-01T02:58:20.000   8.016554375949583e+03  -3.471213982147848e+04   6.054636026699167e+01   3.459753815359533e+00  -9.758614291858652e-01   1.687535044708148e-03
2017-01-01T02:58:30.000   8.051148376681606e+03  -3.472188314090781e+04   6.056320875049663e+01   3.459046130654651e+00  -9.728030941175163e-01   1.682162764257533e-03
2017-01-01T02:58:40.000   8.085735290823382e+03  -3.473159589504400e+04   6.058000354259330e+01   3.458336432394066e+00  -9.697483509858698e-01   1.676796729180666e-03
2017-01-01T02:58:50.000   8.120315098293434e+03  -3.474127811978823e+04   6.059674470570361e+01   3.457624727839415e+00  -9.666971954309563e-01   1.671436931894516e-03
2017-01-01T02:59:00.000   8.154887779064894e+03  -3.475092985099385e+04   6.061343230216657e+01   3.456911024228858e+00  -9.636496230950613e-01   1.666083364820006e-03
2017-01-01T02:59:10.000   8.189453313164854e+03  -3.476055112446477e+04   6.063006639423505e+01   3.456195328777030e+00  -9.606056296229657e-01   1.660736020382410e-03
2017-01-01T02:59:20.000   8.224011680342741e+03  -3.477014197586691e+04   6.064664704392307e+01   3.455477648682271e+00  -9.575652106907800e-01   1.655394891062048e-03
2017-01-01T02:59:30.000   8.258562860516820e+03  -3.477970244084904e+04   6.066317431321458e+01   3.454757991117182e+00  -9.545283619670084e-01   1.650059969325852e-03
2017-01-01T02:59:40.000   8.293106833597862e+03  -3.478923255499468e+04   6.067964826398025e+01   3.454036363232410e+00  -9.514950791280063e-01   1.644731247654526e-03
2017-01-01T02:59:50.000   8.327643580268468e+03  -3.479873235403733e+04   6.069606895834949e+01   3.453312772140458e+00  -9.484653577895442e-01   1.639408718422300e-03
2017-01-01T03:00:00.000   8.362173081203200e+03  -3.480820187364500e+04   6.071243645833810e+01   3.452587224932006e+00  -9.454391935753528e-01   1.634092374017373e-03
2017-01-01T03:00:10.000   8.396695317244745e+03  -3.481764114946947e+04   6.072875082593336e+01   3.451859728672347e+00  -9.424165821016098e-01   1.628782206814644e-03
2017-01-01T03:00:20.000   8.431210268955550e+03  -3.482705021701986e+04   6.074501212287542e+01   3.451130290410615e+00  -9.393975190166129e-01   1.623478209245423e-03
2017-01-01T03:00:30.000   8.465717916950618e+03  -3.483642911175770e+04   6.076122041082169e+01   3.450398917173145e+00  -9.363819999712543e-01   1.618180373745548e-03
2017-01-01T03:00:40.000   8.500218241896813e+03  -3.484577786909528e+04   6.077737575134402e+01   3.449665615963432e+00  -9.333700206192495e-01   1.612888692755797e-03
2017-01-01T03:00:50.000   8.534711224181894e+03  -3.485509652430976e+04   6.079347820578039e+01   3.448930393769515e+00  -9.303615766456703e-01   1.607603158772013e-03
2017-01-01T03:01:00.000   8.569196844360193e+03  -3.486438511266049e+04   6.080952783543738e+01   3.448193257554311e+00  -9.273566637284171e-01   1.602323764277408e-03
2017-01-01T03:01:10.000   8.603675082973239e+03  -3.487364366934139e+04   6.082552470150809e+01   3.447454214259559e+00  -9.243552775537931e-01   1.597050501769937e-03
2017-01-01T03:01:20.000   8.638145921340669e+03  -3.488287222969350e+04   6.084146886543940e+01   3.446713270788949e+00  -9.213574137476714e-01   1.591783363641348e-03
2017-01-01T03:01:30.000   8.672609340766800e+03  -3.489207082899169e+04   6.085736038856323e+01   3.445970434025169e+00  -9.183630679446063e-01   1.586522342298621e-03
2017-01-01T03:01:40.000   8.707065322745224e+03  -3.490123950250000e+04   6.087319933219232e+01   3.445225710825613e+00  -9.153722357700056e-01   1.581267430132632e-03
2017-01-01T03:01:50.000   8.741513848407592e+03  -3.491037828532187e+04   6.088898575736150e+01   3.444479108034134e+00  -9.123849128883160e-01   1.576018619602836e-03
2017-01-01T03:02:00.000   8.775954898978192e+03  -3.491948721252439e+04   6.090471972504216e+01   3.443730632471508e+00  -9.094010949632599e-01   1.570775903167382e-03
2017-01-01T03:02:10.000   8.810388455672195e+03  -3.492856631911031e+04   6.092040129609411e+01   3.442980290937644e+00  -9.064207776667718e-01   1.565539273298824e-03
2017-01-01T03:02:20.000   8.844814499723509e+03  -3.493761564002771e+04   6.093603053128226e+01   3.442228090211202e+00  -9.034439566763793e-01   1.560308722479491e-03
2017-01-01T03:02:30.000   8.879233012418390e+03  -3.494663521017714e+04   6.095160749128882e+01   3.441474037048793e+00  -9.004706276724924e-01   1.555084243196754e-03
2017-01-01T03:02:40.000   8.913643975107698e+03  -3.495562506441522e+04   6.096713223671966e+01   3.440718138184805e+00  -8.975007863373277e-01   1.549865827941121e-03
2017-01-01T03:02:50.000   8.948047369329974e+03  -3.496458523758766e+04   6.098260482816139e+01   3.439960400328820e+00  -8.945344283442136e-01   1.544653469187486e-03
2017-01-01T03:03:00.000   8.982443176728877e+03  -3.497351576450674e+04   6.099802532614223e+01   3.439200830167415e+00  -8.915715493648462e-01   1.539447159407835e-03
2017-01-01T03:03:10.000   9.016831379053014e+03  -3.498241667995152e+04   6.101339379113251e+01   3.438439434364256e+00  -8.886121450692889e-01   1.534246891071260e-03
